BEIDOU-2 IGSO-1 (C06)   
1 36828U 10036A   23080.55490306 -.00000153  00000+0  00000+0 0  9990
2 36828  54.2094 173.6975 0035427 188.3547 125.0435  1.00271175 46350
BEIDOU-2 G4 (C04)       
1 37210U 10057A   23080.59252456 -.00000129  00000+0  00000+0 0  9998
2 37210   0.8426  48.0659 0001331 214.6238 289.4173  1.00269874 45416
BEIDOU-2 IGSO-2 (C07)   
1 37256U 10068A   23080.49324595 -.00000186  00000+0  00000+0 0  9996
2 37256  49.7126 286.3185 0023376 202.3611 336.2624  1.00280282 44921
BEIDOU-2 IGSO-3 (C08)   
1 37384U 11013A   23078.29809368 -.00000163  00000+0  00000+0 0  9995
2 37384  60.6956  51.5440 0023513 188.6994 150.8392  1.00281908 43775
BEIDOU-2 IGSO-4 (C09)   
1 37763U 11038A   23080.59972361 -.00000104  00000+0  00000+0 0  9998
2 37763  54.4872 176.2140 0106674 228.2470  85.2550  1.00265961 42773
BEIDOU-2 IGSO-5 (C10)   
1 37948U 11073A   23080.26756190 -.00000138  00000+0  00000+0 0  9993
2 37948  49.8321 285.9772 0085220 219.5355 225.5724  1.00270980 41534
BEIDOU-2 G5 (C05)       
1 38091U 12008A   23080.48322200  .00000042  00000+0  00000+0 0  9990
2 38091   1.3311  63.6771 0025241 318.5955  29.0220  1.00270263 40608
BEIDOU-2 M3 (C11)       
1 38250U 12018A   23079.99070391 -.00000093  00000+0  00000+0 0  9990
2 38250  56.5938 344.4162 0022341 263.4141 312.7372  1.86231383 74239
BEIDOU-2 M4 (C12)       
1 38251U 12018B   23079.91425716 -.00000091  00000+0  00000+0 0  9996
2 38251  56.5071 343.7246 0013602 270.1133 299.5542  1.86234402 74235
BEIDOU-2 M6 (C14)       
1 38775U 12050B   23079.31091074  .00000045  00000+0  00000+0 0  9991
2 38775  55.5732 102.4058 0014254 321.8282  38.3290  1.86231357 71606
BEIDOU-2 G6 (C02)       
1 38953U 12059A   23080.48836472 -.00000192  00000+0  00000+0 0  9991
2 38953   1.6132  82.4107 0011283 303.0224  53.1728  1.00271102 38038
BEIDOU-3S IGSO-1S (C31) 
1 40549U 15019A   23080.34139748 -.00000155  00000+0  00000+0 0  9990
2 40549  51.3986 309.5246 0036093 192.6571 253.3893  1.00294164 29211
BEIDOU-3S M2S (C57)     
1 40748U 15037A   23080.05291457 -.00000092  00000+0  00000+0 0  9995
2 40748  55.7519 342.4170 0005408  10.9153 200.7592  1.86233408 52067
BEIDOU-3S M1S (C58)     
1 40749U 15037B   23079.84654883 -.00000091  00000+0  00000+0 0  9996
2 40749  55.7554 342.4126 0006591 338.9989 228.2942  1.86233142 52050
BEIDOU-3S IGSO-2S (C56) 
1 40938U 15053A   23080.26387208 -.00000124  00000+0  00000+0 0  9993
2 40938  51.0687 272.6739 0044521 192.1626 265.1920  1.00275373 27486
BEIDOU-2 IGSO-6 (C13)   
1 41434U 16021A   23080.27380263 -.00000153  00000+0  00000+0 0  9998
2 41434  58.5086  49.9749 0048505 226.1417  97.1627  1.00271947 25603
BEIDOU-2 G7 (C03)       
1 41586U 16037A   23080.42188080 -.00000370  00000+0  00000+0 0  9994
2 41586   1.4913  64.7665 0010095 346.6760  29.5696  1.00266306 24923
BEIDOU-3 M1 (C19)       
1 43001U 17069A   23079.60535428  .00000044  00000+0  00000+0 0  9991
2 43001  55.7257 102.4321 0012040 290.6026  63.4459  1.86231634 36538
BEIDOU-3 M2 (C20)       
1 43002U 17069B   23080.09260434  .00000040  00000+0  00000+0 0  9995
2 43002  55.7254 102.4517 0009601 308.5976  54.8365  1.86231372 36545
BEIDOU-3 M7 (C27)       
1 43107U 18003A   23080.10323844 -.00000094  00000+0  00000+0 0  9997
2 43107  55.2063 343.2101 0005062  47.1428 130.0330  1.86232498 35305
BEIDOU-3 M8 (C28)       
1 43108U 18003B   23079.01583704 -.00000090  00000+0  00000+0 0  9995
2 43108  55.1992 343.2346 0003264 280.3340 290.1391  1.86230958 35284
BEIDOU-3 M4 (C22)       
1 43207U 18018A   23080.21905248  .00000038  00000+0  00000+0 0  9997
2 43207  55.6859 102.5163 0006246 324.6874  35.3356  1.86231555 34699
BEIDOU-3 M3 (C21)       
1 43208U 18018B   23078.13784329  .00000049  00000+0  00000+0 0  9993
2 43208  55.6841 102.5911 0009507 297.9174  62.0572  1.86231638 34655
BEIDOU-3 M9 (C29)       
1 43245U 18029A   23080.24343009 -.00000092  00000+0  00000+0 0  9996
2 43245  55.1077 340.9533 0001500 350.2805 191.5362  1.86232662 33842
BEIDOU-3 M10 (C30)      
1 43246U 18029B   23080.16991950 -.00000091  00000+0  10000-3 0  9996
2 43246  55.1042 340.9850 0005295   0.3532 178.9322  1.86232830 33833
BEIDOU-2 IGSO-7 (C16)   
1 43539U 18057A   23078.59620749 -.00000173  00000+0  00000+0 0  9997
2 43539  55.1021 173.3130 0057997 228.8674 101.5240  1.00282478 17263
BEIDOU-3 M5 (C23)       
1 43581U 18062A   23080.05709860 -.00000014  00000+0  00000+0 0  9990
2 43581  54.2099 222.6220 0001520 312.1965   3.2386  1.86231910 31572
BEIDOU-3 M6 (C24)       
1 43582U 18062B   23079.92162405 -.00000014  00000+0  00000+0 0  9993
2 43582  54.2090 222.6160 0006245  33.0099 282.9615  1.86229554 31575
BEIDOU-3 M12 (C26)      
1 43602U 18067A   23080.39766789 -.00000013  00000+0  00000+0 0  9998
2 43602  54.2944 221.2399 0007692  23.9769 292.6415  1.86231698 31077
BEIDOU-3 M11 (C25)      
1 43603U 18067B   23080.32966231 -.00000013  00000+0  00000+0 0  9996
2 43603  54.2915 221.2082 0004520  20.1346 161.2027  1.86231597 31092
BEIDOU-3 M13 (C32)      
1 43622U 18072A   23078.41206530  .00000048  00000+0  00000+0 0  9996
2 43622  55.6510 102.1219 0008452 286.1484  77.8476  1.86231449 30571
BEIDOU-3 M14 (C33)      
1 43623U 18072B   23080.60497477  .00000034  00000+0  00000+0 0  9998
2 43623  55.6559 102.0415 0006225 303.2668 181.2084  1.86231527 30610
BEIDOU-3 M16 (C35)      
1 43647U 18078A   23077.12631157 -.00000082  00000+0  10000-3 0  9997
2 43647  55.0051 341.1970 0008699   6.1845 200.0064  1.86227387 30057
BEIDOU-3 M15 (C34)      
1 43648U 18078B   23079.36715278 -.00000088  00000+0  00000+0 0  9994
2 43648  54.9997 341.1238 0005548  14.9048 163.0530  1.86232236 30116
BEIDOU-3 G1 (C59)       
1 43683U 18085A   23080.49980021 -.00000295  00000+0  00000+0 0  9997
2 43683   1.1762 138.3263 0001860  27.6679 332.7255  1.00272162 16196
BEIDOU-3 M17 (C36)      
1 43706U 18093A   23079.25099837 -.00000014  00000+0  00000+0 0  9999
2 43706  54.2916 222.5550 0007172 281.4914  78.3694  1.86231797 29479
BEIDOU-3 M18 (C37)      
1 43707U 18093B   23080.12653032 -.00000014  00000+0  00000+0 0  9991
2 43707  54.2919 222.5162 0006048 321.8636 356.2478  1.86229709 29471
BEIDOU-3 IGSO-1 (C38)   
1 44204U 19023A   23080.53575956 -.00000211  00000+0  00000+0 0  9990
2 44204  56.9719  50.0068 0020250 209.1021 232.1802  1.00279347 14495
BEIDOU-2 G8 (C01)       
1 44231U 19027A   23080.57080156 -.00000263  00000+0  00000+0 0  9998
2 44231   1.5387  80.9463 0004446 139.0809 308.8168  1.00271980 14207
BEIDOU-3 IGSO-2 (C39)   
1 44337U 19035A   23079.63527274 -.00000165  00000+0  00000+0 0  9997
2 44337  55.1419 169.2694 0030170 196.5535 160.4256  1.00273219 13812
BEIDOU-3 M24 (C46)      
1 44542U 19061A   23079.72484116 -.00000014  00000+0  00000+0 0  9994
2 44542  54.5185 222.7355 0007665 359.2382   0.7008  1.86231091 23732
BEIDOU-3 M23 (C45)      
1 44543U 19061B   23079.78973749 -.00000014  00000+0  00000+0 0  9996
2 44543  54.5167 222.7021 0004857 359.8908 315.2195  1.86231661 23726
BEIDOU-3 IGSO-3 (C40)   
1 44709U 19073A   23080.49507641 -.00000159  00000+0  00000+0 0  9997
2 44709  56.8094 293.4989 0029028 178.1307   4.7660  1.00278429 12571
BEIDOU-3 M22 (C44)      
1 44793U 19078A   23080.37039851 -.00000093  00000+0  10000-3 0  9997
2 44793  54.8523 341.0728 0007518  12.6098 164.1665  1.86232166 22602
BEIDOU-3 M21 (C43)      
1 44794U 19078B   23079.43441574 -.00000089  00000+0  00000+0 0  9992
2 44794  54.8265 341.0906 0005313   4.0517 177.3549  1.86232686 22587
BEIDOU-3 M19 (C41)      
1 44864U 19090A   23078.34101929  .00000048  00000+0  00000+0 0  9994
2 44864  55.5859 102.3213 0019241 273.1647  89.3015  1.86231887 22154
BEIDOU-3 M20 (C42)      
1 44865U 19090B   23080.08660642  .00000039  00000+0  00000+0 0  9991
2 44865  55.5904 102.2944 0017254 285.0896 257.5345  1.86231856 22157
BEIDOU-3 G2 (C60)       
1 45344U 20017A   23080.48749309 -.00000157  00000+0  00000+0 0  9999
2 45344   1.9919   7.1090 0001578  44.0390  23.1030  1.00270741 11394
BEIDOU-3 G3 (C61)       
1 45807U 20040A   23080.42188080 -.00000372  00000+0  00000+0 0  9995
2 45807   0.8562 318.6951 0006055 338.8597 143.5082  1.00267952 10207
